{
  "name": "SATGUS",
  "line1": "1 62713U 25009DJ  26135.19789707  .00002917  00000+0  23451-3 0  9996",
  "line2": "2 62713  97.7023 216.8846 0007626 204.5598 155.5264 15.00778310 72614",
  "fetched_at": "2026-05-16T00:39:03.352052+00:00"
}